GSAT0102 (GALILEO-FM2)  
1 37847U 11060B   26087.70478072 -.00000099  00000+0  00000+0 0  9992
2 37847  57.0201 343.9462 0005116  21.5560 158.0911  1.70475653 89751
